KUIPER-00167            
1 65780U 25217U   26021.84855644  .00006480  00000+0  87753-3 0  9998
2 65780  51.8947 252.7146 0001112  94.7413 265.3676 14.79966549 17904
KUIPER-00168            
1 65781U 25217V   26022.25003472 -.01613869  00000+0 -18422+0 0  9990
2 65781  51.8970 233.7583 0001404  74.7487   5.3823 14.89266967  5561
KUIPER-00169            
1 65782U 25217W   26022.25003472 -.00047684  00000+0 -61144-2 0  9998
2 65782  51.8987 238.4678 0001516  63.4978 199.1103 14.80984234  5570
KUIPER-00170            
1 65783U 25217X   26021.99167604 -.00007589  00000+0 -96709-3 0  9993
2 65783  51.8983 244.5944 0001150  81.9547 278.1545 14.79955437 18036
KUIPER-00171            
1 65784U 25217Y   26022.25003472  .00172608  22589-4  46286-3 0  9995
2 65784  51.8484 208.5432 0008026 174.8709 180.2605 15.94039747  5004
KUIPER-00172            
1 65785U 25217Z   26022.25003472 -.00023606  00000+0 -11088-2 0  9991
2 65785  51.8765 232.3384 0004504 173.1213 165.3122 15.18771614  5748
KUIPER-00173            
1 65786U 25217AA  26022.30150401  .00002690  00000+0  36108-3 0  9992
2 65786  51.9003 238.2343 0001098 101.5960 258.5126 14.82325224 18143
KUIPER-00174            
1 65787U 25217AB  26022.25003472 -.00046161  00000+0 -48791-2 0  9995
2 65787  51.8967 233.8341 0003701 276.3267 327.7310 14.88882377  5722
